{
    "links": {
        "self": "http://www.neowsapp.com/rest/v1/neo/3471522?api_key=iIulBulltgU6a56xZRHN4H3l9WmuAYTsLGpBGhQ2"
    },
    "id": "3471522",
    "neo_reference_id": "3471522",
    "name": "(2009 TO8)",
    "designation": "2009 TO8",
    "nasa_jpl_url": "http://ssd.jpl.nasa.gov/sbdb.cgi?sstr=3471522",
    "absolute_magnitude_h": 26.1,
    "estimated_diameter": {
        "kilometers": {
            "estimated_diameter_min": 0.0160160338,
            "estimated_diameter_max": 0.0358129403
        },
        "meters": {
            "estimated_diameter_min": 16.0160337979,
            "estimated_diameter_max": 35.8129403019
        },
        "miles": {
            "estimated_diameter_min": 0.0099518989,
            "estimated_diameter_max": 0.0222531225
        },
        "feet": {
            "estimated_diameter_min": 52.5460443254,
            "estimated_diameter_max": 117.4965270602
        }
    },
    "is_potentially_hazardous_asteroid": false,
    "close_approach_data": [
        {
            "close_approach_date": "2007-01-30",
            "close_approach_date_full": "2007-Jan-30 17:22",
            "epoch_date_close_approach": 1170177720000,
            "relative_velocity": {
                "kilometers_per_second": "21.0444747207",
                "kilometers_per_hour": "75760.1089946039",
                "miles_per_hour": "47074.3855027859"
            },
            "miss_distance": {
                "astronomical": "0.3856840091",
                "lunar": "150.0310795399",
                "kilometers": "57697506.254420617",
                "miles": "35851567.9272018346"
            },
            "orbiting_body": "Earth"
        },
        {
            "close_approach_date": "2009-10-21",
            "close_approach_date_full": "2009-Oct-21 05:57",
            "epoch_date_close_approach": 1256104620000,
            "relative_velocity": {
                "kilometers_per_second": "10.1443911184",
                "kilometers_per_hour": "36519.8080262429",
                "miles_per_hour": "22691.9884927507"
            },
            "miss_distance": {
                "astronomical": "0.0183069963",
                "lunar": "7.1214215607",
                "kilometers": "2738687.652577881",
                "miles": "1701741.5965055178"
            },
            "orbiting_body": "Earth"
        }
    ],
    "orbital_data": {
        "orbit_id": "12",
        "orbit_determination_date": "2017-04-06 08:59:38",
        "first_observation_date": "2009-10-15",
        "last_observation_date": "2009-10-23",
        "data_arc_in_days": 8,
        "observations_used": 43,
        "orbit_uncertainty": "8",
        "minimum_orbit_intersection": ".00328698",
        "jupiter_tisserand_invariant": "3.609",
        "epoch_osculation": "2455121.5",
        "eccentricity": ".539913082041357",
        "semi_major_axis": "2.032467807531578",
        "inclination": "4.691159012823241",
        "ascending_node_longitude": "29.13908284239618",
        "orbital_period": "1058.361273251553",
        "perihelion_distance": ".9351118494173639",
        "perihelion_argument": "36.43338135497451",
        "aphelion_distance": "3.129823765645792",
        "perihelion_time": "2455154.376694948320",
        "mean_anomaly": "348.8170415145357",
        "mean_motion": ".3401485004208339",
        "equinox": "J2000",
        "orbit_class": {
            "orbit_class_type": "APO",
            "orbit_class_description": "Near-Earth asteroid orbits which cross the Earth’s orbit similar to that of 1862 Apollo",
            "orbit_class_range": "a (semi-major axis) > 1.0 AU; q (perihelion) < 1.017 AU"
        }
    },
    "is_sentry_object": false
}